DUCHIFAT-1              
1 40021U 14033M   26166.42257015  .00087303  00000+0  90897-3 0  9991
2 40021  98.0462 225.3358 0003280 119.3803 240.7782 15.64281009655477
NANOSATC-BR1            
1 40024U 14033Q   26166.57193130  .00014640  00000+0  48492-3 0  9995
2 40024  98.0716 198.8163 0004283 167.4962 192.6384 15.31414107653735
QB50P1                  
1 40025U 14033R   26166.56831469  .00007133  00000+0  35185-3 0  9993
2 40025  98.0960 177.6007 0007682 221.6020 138.4628 15.18240486652788
DTUSAT-2                
1 40030U 14033W   26166.25647814  .00005713  00000+0  30982-3 0  9996
2 40030  98.0859 163.8608 0006465 232.9556 127.1083 15.14996756652393
QB50P2                  
1 40032U 14033Y   26166.51510336  .00005581  00000+0  30147-3 0  9991
2 40032  98.0745 163.2911 0007882 168.2312 191.9104 15.15140467652412
PERSEUS-M1              
1 40039U 14033AF  26166.43049224  .00001103  00000+0  10467-3 0  9991
2 40039  97.9642 110.5335 0010431 308.1412  51.8868 14.95626197650378
POLYITAN-1              
1 40042U 14033AJ  26166.55122806  .00015920  00000+0  49793-3 0  9992
2 40042  98.0935 192.6573 0008532 146.2556 213.9228 15.33207736653341
TIGRISAT                
1 40043U 14033AK  26166.36413471  .00001914  00000+0  22485-3 0  9990
2 40043  97.7826 316.4173 0050643  81.0598 279.6345 14.85156509645359
CANX-4                  
1 40055U 14034C   26166.59823265  .00000798  00000+0  10965-3 0  9994
2 40055  98.3124  41.8530 0013277  21.9807 338.1971 14.81262169644298
CANX-5                  
1 40056U 14034D   26166.59668435  .00000803  00000+0  11016-3 0  9996
2 40056  98.3126  41.8948 0013284  22.1634 338.0149 14.81279371635102
GONETS-M 10             
1 40063U 14036C   26166.62156909 -.00000051  00000+0 -44274-3 0  9997
2 40063  82.5108 308.6465 0022591 143.8368 216.4244 12.42945376542055
METEOR-M 2              
1 40069U 14037A   26166.59702247 -.00000198  00000+0 -71199-4 0  9991
2 40069  98.5106 142.3915 0006843  48.1166 312.0595 14.21460298619099
DX1                     
1 40071U 14037C   26166.61539278  .00000594  00000+0  68111-4 0  9997
2 40071  98.3863 128.2215 0005802 282.7051  77.3516 14.89978963645875
UKUBE-1                 
1 40074U 14037F   26166.58158936  .00006688  00000+0  37753-3 0  9991
2 40074  98.4228 169.6848 0002582 134.1478 225.9963 15.13532426648317
GAOFEN-2                
1 40118U 14049A   26166.62229104  .00001091  00000+0  14814-3 0  9990
2 40118  98.0117 230.8310 0006031 232.8979 127.1683 14.80899648639002
BRITE-PL2 (HEWELIUSZ)   
1 40119U 14049B   26166.56557141  .00001402  00000+0  13481-3 0  9994
2 40119  97.9096 278.5530 0015233 113.2986 246.9839 14.94588461641205
CBERS 4                 
1 40336U 14079A   26166.64317302  .00000257  00000+0  10401-3 0  9996
2 40336  98.3537 223.5231 0001880  64.6841 295.4540 14.35509176603736
SMAP                    
1 40376U 15003A   26166.57561225  .00000361  00000+0  79011-4 0  9994
2 40376  98.1276 173.6930 0001307  96.0954 264.0397 14.63365398607381
GONETS-M 11             
1 40552U 15020A   26166.63990807  .00000028  00000+0  12904-3 0  9995
2 40552  82.4876  31.9567 0016705   9.0741 351.0638 12.42877129508545
GONETS-M 12             
1 40553U 15020B   26166.61341512  .00000082  00000+0  52315-3 0  9997
2 40553  82.4910  33.0966 0015438 354.4066   5.6838 12.42891327508539
GONETS-M 13             
1 40554U 15020C   26166.58687058  .00000095  00000+0  61504-3 0  9996
2 40554  82.4871  31.7286 0013748 339.8985  20.1552 12.42870566508509
DMC3-FM1                
1 40715U 15032A   26166.58900968  .00001101  00000+0  13269-3 0  9990
2 40715  97.6467  31.8272 0007073  64.2256 295.9689 14.85739243589672
DMC3-FM2                
1 40716U 15032B   26166.61106712  .00000595  00000+0  74435-4 0  9999
2 40716  97.6523  33.4212 0007659  67.8539 292.3490 14.85744039589671
DMC3-FM3                
1 40717U 15032C   26166.63438389 -.00000059  00000+0 -88132-6 0  9998
2 40717  97.6574  35.1954 0006777  67.8885 292.3050 14.85729948589689
CARBONITE 1 (CBNT-1)    
1 40718U 15032D   26166.63126072  .00001104  00000+0  13992-3 0  9991
2 40718  97.6498 344.7629 0013273 303.7200  56.2749 14.83581839589118
LILACSAT-2              
1 40908U 15049K   26166.59528161  .00014930  00000+0  25496-3 0  9993
2 40908  97.4644 203.3763 0005412 252.6987 107.3673 15.51400500595504
