OBJECT_NAME,OBJECT_ID,EPOCH,MEAN_MOTION,ECCENTRICITY,INCLINATION,RA_OF_ASC_NODE,ARG_OF_PERICENTER,MEAN_ANOMALY,EPHEMERIS_TYPE,CLASSIFICATION_TYPE,NORAD_CAT_ID,ELEMENT_SET_NO,REV_AT_EPOCH,BSTAR,MEAN_MOTION_DOT,MEAN_MOTION_DDOT
DUCHIFAT-1,2014-033M,2026-06-15T10:08:30.060960,15.64281009,.000328,98.0462,225.3358,119.3803,240.7782,0,U,40021,999,65547,.90896671E-3,.87303E-3,0
NANOSATC-BR1,2014-033Q,2026-06-15T13:43:34.864320,15.31414107,.00042832,98.0716,198.8163,167.4962,192.6384,0,U,40024,999,65373,.48492316E-3,.1464E-3,0
QB50P1,2014-033R,2026-06-15T13:38:22.389216,15.18240486,.00076823,98.0960,177.6007,221.6020,138.4628,0,U,40025,999,65278,.35185184E-3,.7133E-4,0
DTUSAT-2,2014-033W,2026-06-15T06:09:19.711296,15.14996756,.0006465,98.0859,163.8608,232.9556,127.1083,0,U,40030,999,65239,.30982E-3,.5713E-4,0
QB50P2,2014-033Y,2026-06-15T12:21:44.930304,15.15140467,.00078825,98.0745,163.2911,168.2312,191.9104,0,U,40032,999,65241,.30146674E-3,.5581E-4,0
PERSEUS-M1,2014-033AF,2026-06-15T10:19:54.529536,14.95626197,.00104316,97.9642,110.5335,308.1412,51.8868,0,U,40039,999,65037,.10467336E-3,.1103E-4,0
POLYITAN-1,2014-033AJ,2026-06-15T13:13:46.104384,15.33207736,.0008532,98.0935,192.6573,146.2556,213.9228,0,U,40042,999,65334,.49793499E-3,.1592E-3,0
TIGRISAT,2014-033AK,2026-06-15T08:44:21.238944,14.85156509,.00506437,97.7826,316.4173,81.0598,279.6345,0,U,40043,999,64535,.22485378E-3,.1914E-4,0
CANX-4,2014-034C,2026-06-15T14:21:27.300960,14.81262169,.00132777,98.3124,41.8530,21.9807,338.1971,0,U,40055,999,64429,.10965384E-3,.798E-5,0
CANX-5,2014-034D,2026-06-15T14:19:13.527840,14.81279371,.00132845,98.3126,41.8948,22.1634,338.0149,0,U,40056,999,63510,.11015538E-3,.803E-5,0
GONETS-M 10,2014-036C,2026-06-15T14:55:03.569376,12.42945376,.00225915,82.5108,308.6465,143.8368,216.4244,0,U,40063,999,54205,-.44274061E-3,-.51E-6,0
METEOR-M 2,2014-037A,2026-06-15T14:19:42.741408,14.21460298,.00068436,98.5106,142.3915,48.1166,312.0595,0,U,40069,999,61909,-.71198707E-4,-.198E-5,0
DX1,2014-037C,2026-06-15T14:46:09.936192,14.89978963,.00058022,98.3863,128.2215,282.7051,77.3516,0,U,40071,999,64587,.68111412E-4,.594E-5,0
UKUBE-1,2014-037F,2026-06-15T13:57:29.320704,15.13532426,.00025821,98.4228,169.6848,134.1478,225.9963,0,U,40074,999,64831,.37752699E-3,.6688E-4,0
GAOFEN-2,2014-049A,2026-06-15T14:56:05.945856,14.80899648,.00060314,98.0117,230.8310,232.8979,127.1683,0,U,40118,999,63900,.14813944E-3,.1091E-4,0
BRITE-PL2 (HEWELIUSZ),2014-049B,2026-06-15T13:34:25.369824,14.94588461,.00152335,97.9096,278.5530,113.2986,246.9839,0,U,40119,999,64120,.13480823E-3,.1402E-4,0
CBERS 4,2014-079A,2026-06-15T15:26:10.148928,14.35509176,.00018809,98.3537,223.5231,64.6841,295.4540,0,U,40336,999,60373,.104013E-3,.257E-5,0
SMAP,2015-003A,2026-06-15T13:48:52.898400,14.63365398,.00013077,98.1276,173.6930,96.0954,264.0397,0,U,40376,999,60738,.79010877E-4,.361E-5,0
GONETS-M 11,2015-020A,2026-06-15T15:21:28.057248,12.42877129,.00167052,82.4876,31.9567,9.0741,351.0638,0,U,40552,999,50854,.12903694E-3,.28E-6,0
GONETS-M 12,2015-020B,2026-06-15T14:43:19.066368,12.42891327,.00154387,82.4910,33.0966,354.4066,5.6838,0,U,40553,999,50853,.52315399E-3,.82E-6,0
GONETS-M 13,2015-020C,2026-06-15T14:05:05.618112,12.42870566,.00137486,82.4871,31.7286,339.8985,20.1552,0,U,40554,999,50850,.61504047E-3,.95E-6,0
DMC3-FM1,2015-032A,2026-06-15T14:08:10.436352,14.85739243,.00070734,97.6467,31.8272,64.2256,295.9689,0,U,40715,999,58967,.13269026E-3,.1101E-4,0
DMC3-FM2,2015-032B,2026-06-15T14:39:56.199168,14.85744039,.00076599,97.6523,33.4212,67.8539,292.3490,0,U,40716,999,58967,.7443494E-4,.595E-5,0
DMC3-FM3,2015-032C,2026-06-15T15:13:30.768096,14.85729948,.00067776,97.6574,35.1954,67.8885,292.3050,0,U,40717,999,58968,-.88132E-6,-.59E-6,0
CARBONITE 1 (CBNT-1),2015-032D,2026-06-15T15:09:00.926208,14.83581839,.00132732,97.6498,344.7629,303.7200,56.2749,0,U,40718,999,58911,.13992321E-3,.1104E-4,0
LILACSAT-2,2015-049K,2026-06-15T14:17:12.331104,15.51400500,.00054127,97.4644,203.3763,252.6987,107.3673,0,U,40908,999,59550,.25496117E-3,.1493E-3,0
